{
  "type": "FeatureCollection",
  "features": [
    {
      "type": "Feature",
      "properties": {
        "norad_id": 36828,
        "name": "BEIDOU-2 IGSO-1 (C06)",
        "group": "beidou",
        "lat": -44.224685870187244,
        "lon": 29.2197572451081,
        "alt_km": 35591.71282426796,
        "timestamp": "2025-12-07T14:37:05.469786+00:00",
        "meta_object_name": "BEIDOU-2 IGSO-1 (C06)",
        "meta_object_id": "2010-036A",
        "meta_epoch": "2025-12-06T10:45:13.811328",
        "meta_mean_motion": 1.00277832,
        "meta_eccentricity": 0.00512425,
        "meta_inclination": 54.2853,
        "meta_ra_of_asc_node": 164.7048,
        "meta_arg_of_pericenter": 215.825,
        "meta_mean_anomaly": 324.072,
        "meta_ephemeris_type": 0,
        "meta_classification_type": "U",
        "meta_norad_cat_id": 36828,
        "meta_element_set_no": 999,
        "meta_rev_at_epoch": 5616,
        "meta_bstar": 0,
        "meta_mean_motion_dot": -5.7e-07,
        "meta_mean_motion_ddot": 0,
        "tle_line1": "1 36828U 10036A   25340.44807652 -.00000057  00000+0  00000+0 0  9998",
        "tle_line2": "2 36828  54.2853 164.7048 0051242 215.8250 324.0720  1.00277832 56169"
      },
      "geometry": {
        "type": "Point",
        "coordinates": [
          29.2197572451081,
          -44.224685870187244
        ]
      }
    },
    {
      "type": "Feature",
      "properties": {
        "norad_id": 37210,
        "name": "BEIDOU-2 G4 (C04)",
        "group": "beidou",
        "lat": 1.4114099652444467,
        "lon": 95.90190047939167,
        "alt_km": 35830.565748886256,
        "timestamp": "2025-12-07T14:37:05.469810+00:00",
        "meta_object_name": "BEIDOU-2 G4 (C04)",
        "meta_object_id": "2010-057A",
        "meta_epoch": "2025-12-06T21:16:27.963264",
        "meta_mean_motion": 1.0027137,
        "meta_eccentricity": 0.0010947,
        "meta_inclination": 3.1696,
        "meta_ra_of_asc_node": 69.9525,
        "meta_arg_of_pericenter": 189.7733,
        "meta_mean_anomaly": 295.3829,
        "meta_ephemeris_type": 0,
        "meta_classification_type": "U",
        "meta_norad_cat_id": 37210,
        "meta_element_set_no": 999,
        "meta_rev_at_epoch": 5536,
        "meta_bstar": 0,
        "meta_mean_motion_dot": -1.07e-06,
        "meta_mean_motion_ddot": 0,
        "tle_line1": "1 37210U 10057A   25340.88643476 -.00000107  00000+0  00000+0 0  9993",
        "tle_line2": "2 37210   3.1696  69.9525 0010947 189.7733 295.3829  1.00271370 55363"
      },
      "geometry": {
        "type": "Point",
        "coordinates": [
          95.90190047939167,
          1.4114099652444467
        ]
      }
    },
    {
      "type": "Feature",
      "properties": {
        "norad_id": 37256,
        "name": "BEIDOU-2 IGSO-2 (C07)",
        "group": "beidou",
        "lat": 35.50954731950198,
        "lon": 54.105992219924616,
        "alt_km": 35767.725619078665,
        "timestamp": "2025-12-07T14:37:05.469826+00:00",
        "meta_object_name": "BEIDOU-2 IGSO-2 (C07)",
        "meta_object_id": "2010-068A",
        "meta_epoch": "2025-12-03T17:22:36.030432",
        "meta_mean_motion": 1.0028871,
        "meta_eccentricity": 0.00492335,
        "meta_inclination": 47.9043,
        "meta_ra_of_asc_node": 274.2613,
        "meta_arg_of_pericenter": 216.1442,
        "meta_mean_anomaly": 310.2369,
        "meta_ephemeris_type": 0,
        "meta_classification_type": "U",
        "meta_norad_cat_id": 37256,
        "meta_element_set_no": 999,
        "meta_rev_at_epoch": 5483,
        "meta_bstar": 0,
        "meta_mean_motion_dot": -2.25e-06,
        "meta_mean_motion_ddot": 0,
        "tle_line1": "1 37256U 10068A   25337.72402813 -.00000225  00000+0  00000+0 0  9993",
        "tle_line2": "2 37256  47.9043 274.2613 0049233 216.1442 310.2369  1.00288710 54839"
      },
      "geometry": {
        "type": "Point",
        "coordinates": [
          54.105992219924616,
          35.50954731950198
        ]
      }
    },
    {
      "type": "Feature",
      "properties": {
        "norad_id": 37384,
        "name": "BEIDOU-2 IGSO-3 (C08)",
        "group": "beidou",
        "lat": 1.3572699650032651,
        "lon": 42.72088455003442,
        "alt_km": 35935.55944186736,
        "timestamp": "2025-12-07T14:37:05.469856+00:00",
        "meta_object_name": "BEIDOU-2 IGSO-3 (C08)",
        "meta_object_id": "2011-013A",
        "meta_epoch": "2025-12-03T14:52:09.520896",
        "meta_mean_motion": 1.00272128,
        "meta_eccentricity": 0.00353922,
        "meta_inclination": 62.1308,
        "meta_ra_of_asc_node": 42.005,
        "meta_arg_of_pericenter": 186.5359,
        "meta_mean_anomaly": 174.9093,
        "meta_ephemeris_type": 0,
        "meta_classification_type": "U",
        "meta_norad_cat_id": 37384,
        "meta_element_set_no": 999,
        "meta_rev_at_epoch": 5370,
        "meta_bstar": 0,
        "meta_mean_motion_dot": -1.99e-06,
        "meta_mean_motion_ddot": 0,
        "tle_line1": "1 37384U 11013A   25337.61955464 -.00000199  00000+0  00000+0 0  9999",
        "tle_line2": "2 37384  62.1308  42.0050 0035392 186.5359 174.9093  1.00272128 53708"
      },
      "geometry": {
        "type": "Point",
        "coordinates": [
          42.72088455003442,
          1.3572699650032651
        ]
      }
    },
    {
      "type": "Feature",
      "properties": {
        "norad_id": 37763,
        "name": "BEIDOU-2 IGSO-4 (C09)",
        "group": "beidou",
        "lat": -33.39141914973042,
        "lon": 15.411055316159858,
        "alt_km": 35164.8095743838,
        "timestamp": "2025-12-07T14:37:05.469870+00:00",
        "meta_object_name": "BEIDOU-2 IGSO-4 (C09)",
        "meta_object_id": "2011-038A",
        "meta_epoch": "2025-12-01T12:32:09.960864",
        "meta_mean_motion": 1.00284074,
        "meta_eccentricity": 0.01487808,
        "meta_inclination": 54.5808,
        "meta_ra_of_asc_node": 167.4476,
        "meta_arg_of_pericenter": 230.2031,
        "meta_mean_anomaly": 315.0387,
        "meta_ephemeris_type": 0,
        "meta_classification_type": "U",
        "meta_norad_cat_id": 37763,
        "meta_element_set_no": 999,
        "meta_rev_at_epoch": 5266,
        "meta_bstar": 0,
        "meta_mean_motion_dot": 1.01e-06,
        "meta_mean_motion_ddot": 0,
        "tle_line1": "1 37763U 11038A   25335.52233751  .00000101  00000+0  00000+0 0  9995",
        "tle_line2": "2 37763  54.5808 167.4476 0148780 230.2031 315.0387  1.00284074 52664"
      },
      "geometry": {
        "type": "Point",
        "coordinates": [
          15.411055316159858,
          -33.39141914973042
        ]
      }
    },
    {
      "type": "Feature",
      "properties": {
        "norad_id": 37948,
        "name": "BEIDOU-2 IGSO-5 (C10)",
        "group": "beidou",
        "lat": 43.03946677053325,
        "lon": 36.89371185632412,
        "alt_km": 35919.36564628002,
        "timestamp": "2025-12-07T14:37:05.469884+00:00",
        "meta_object_name": "BEIDOU-2 IGSO-5 (C10)",
        "meta_object_id": "2011-073A",
        "meta_epoch": "2025-12-06T19:14:09.676896",
        "meta_mean_motion": 1.00291748,
        "meta_eccentricity": 0.01104743,
        "meta_inclination": 48.0318,
        "meta_ra_of_asc_node": 273.9307,
        "meta_arg_of_pericenter": 222.1618,
        "meta_mean_anomaly": 320.8955,
        "meta_ephemeris_type": 0,
        "meta_classification_type": "U",
        "meta_norad_cat_id": 37948,
        "meta_element_set_no": 999,
        "meta_rev_at_epoch": 5120,
        "meta_bstar": 0,
        "meta_mean_motion_dot": -1.84e-06,
        "meta_mean_motion_ddot": 0,
        "tle_line1": "1 37948U 11073A   25340.80150089 -.00000184  00000+0  00000+0 0  9990",
        "tle_line2": "2 37948  48.0318 273.9307 0110474 222.1618 320.8955  1.00291748 51209"
      },
      "geometry": {
        "type": "Point",
        "coordinates": [
          36.89371185632412,
          43.03946677053325
        ]
      }
    },
    {
      "type": "Feature",
      "properties": {
        "norad_id": 38091,
        "name": "BEIDOU-2 G5 (C05)",
        "group": "beidou",
        "lat": -2.999632652001489,
        "lon": -5.22896785720176,
        "alt_km": 35757.851157934296,
        "timestamp": "2025-12-07T14:37:05.469897+00:00",
        "meta_object_name": "BEIDOU-2 G5 (C05)",
        "meta_object_id": "2012-008A",
        "meta_epoch": "2025-12-06T20:12:38.759328",
        "meta_mean_motion": 1.00273478,
        "meta_eccentricity": 0.00125168,
        "meta_inclination": 3.094,
        "meta_ra_of_asc_node": 70.7271,
        "meta_arg_of_pericenter": 226.3486,
        "meta_mean_anomaly": 140.6845,
        "meta_ephemeris_type": 0,
        "meta_classification_type": "U",
        "meta_norad_cat_id": 38091,
        "meta_element_set_no": 999,
        "meta_rev_at_epoch": 5044,
        "meta_bstar": 0,
        "meta_mean_motion_dot": 6.1e-07,
        "meta_mean_motion_ddot": 0,
        "tle_line1": "1 38091U 12008A   25340.84211527  .00000061  00000+0  00000+0 0  9991",
        "tle_line2": "2 38091   3.0940  70.7271 0012516 226.3486 140.6845  1.00273478 50442"
      },
      "geometry": {
        "type": "Point",
        "coordinates": [
          -5.22896785720176,
          -2.999632652001489
        ]
      }
    }
  ]
}